XRISM                   
1 57800U 23137A   26075.17812424  .00005494  00000+0  31013-3 0  9997
2 57800  31.0005 241.6922 0007925 104.1647 255.9872 15.11577819138772
ACS3                    
1 59588U 24077B   26075.12162068  .00011568  00000+0  92522-2 0  9993
2 59588  97.2032  14.7875 0065432  61.1551 299.6160 13.89884707 95092
SZ-21 MODULE            
1 66515U 25246C   26074.61177792  .00034609  00000+0  29227-3 0  9997
2 66515  41.4740 166.8918 0000819 310.4718  49.6052 15.69044572 19005
