CCSDS_OMM_VERS = 2.0
CREATION_DATE  = 
ORIGINATOR     = 

OBJECT_NAME    = XRISM
OBJECT_ID      = 2023-137A
CENTER_NAME    = EARTH
REF_FRAME      = TEME
TIME_SYSTEM    = UTC
MEAN_ELEMENT_THEORY = SGP/SGP4

EPOCH          = 2026-03-16T04:16:29.934336
MEAN_MOTION    = 15.11577819
ECCENTRICITY   = .00079259
INCLINATION    = 31.0005
RA_OF_ASC_NODE = 241.6922
ARG_OF_PERICENTER = 104.1647
MEAN_ANOMALY   = 255.9872

EPHEMERIS_TYPE = 0
CLASSIFICATION_TYPE = U
NORAD_CAT_ID   = 57800
ELEMENT_SET_NO = 999
REV_AT_EPOCH   = 13877
BSTAR          = .31012787E-3
MEAN_MOTION_DOT = .5494E-4
MEAN_MOTION_DDOT = 0

CCSDS_OMM_VERS = 2.0
CREATION_DATE  = 
ORIGINATOR     = 

OBJECT_NAME    = ACS3
OBJECT_ID      = 2024-077B
CENTER_NAME    = EARTH
REF_FRAME      = TEME
TIME_SYSTEM    = UTC
MEAN_ELEMENT_THEORY = SGP/SGP4

EPOCH          = 2026-03-16T02:55:08.026752
MEAN_MOTION    = 13.89884707
ECCENTRICITY   = .0065432
INCLINATION    = 97.2032
RA_OF_ASC_NODE = 14.7875
ARG_OF_PERICENTER = 61.1551
MEAN_ANOMALY   = 299.6160

EPHEMERIS_TYPE = 0
CLASSIFICATION_TYPE = U
NORAD_CAT_ID   = 59588
ELEMENT_SET_NO = 999
REV_AT_EPOCH   = 9509
BSTAR          = .92522438E-2
MEAN_MOTION_DOT = .11568E-3
MEAN_MOTION_DDOT = 0

CCSDS_OMM_VERS = 2.0
CREATION_DATE  = 
ORIGINATOR     = 

OBJECT_NAME    = SZ-21 MODULE
OBJECT_ID      = 2025-246C
CENTER_NAME    = EARTH
REF_FRAME      = TEME
TIME_SYSTEM    = UTC
MEAN_ELEMENT_THEORY = SGP/SGP4

EPOCH          = 2026-03-15T14:40:57.612288
MEAN_MOTION    = 15.69044572
ECCENTRICITY   = .00008196
INCLINATION    = 41.4740
RA_OF_ASC_NODE = 166.8918
ARG_OF_PERICENTER = 310.4718
MEAN_ANOMALY   = 49.6052

EPHEMERIS_TYPE = 0
CLASSIFICATION_TYPE = U
NORAD_CAT_ID   = 66515
ELEMENT_SET_NO = 999
REV_AT_EPOCH   = 1900
BSTAR          = .29227235E-3
MEAN_MOTION_DOT = .34609E-3
MEAN_MOTION_DDOT = 0

